{
  "type": "FeatureCollection",
  "features": [
    {
      "type": "Feature",
      "properties": {
        "norad_id": 36744,
        "name": "COMS 1",
        "group": "weather",
        "lat": -3.4205789958134605,
        "lon": -51.05379623278303,
        "alt_km": 35783.709935593586,
        "timestamp": "2025-12-24T05:51:19.248648+00:00",
        "meta_object_name": "COMS 1",
        "meta_object_id": "2010-032A",
        "meta_epoch": "2025-12-23T17:09:58.604832",
        "meta_mean_motion": 1.00270685,
        "meta_eccentricity": 7.997e-05,
        "meta_inclination": 4.3651,
        "meta_ra_of_asc_node": 77.8741,
        "meta_arg_of_pericenter": 212.8601,
        "meta_mean_anomaly": 187.4375,
        "meta_ephemeris_type": 0,
        "meta_classification_type": "U",
        "meta_norad_cat_id": 36744,
        "meta_element_set_no": 999,
        "meta_rev_at_epoch": 4933,
        "meta_bstar": 0,
        "meta_mean_motion_dot": -3.25e-06,
        "meta_mean_motion_ddot": 0,
        "tle_line1": "1 36744U 10032A   25357.71526163 -.00000325  00000+0  00000+0 0  9992",
        "tle_line2": "2 36744   4.3651  77.8741 0000799 212.8601 187.4375  1.00270685 49337"
      },
      "geometry": {
        "type": "Point",
        "coordinates": [
          -51.05379623278303,
          -3.4205789958134605
        ]
      }
    },
    {
      "type": "Feature",
      "properties": {
        "norad_id": 37214,
        "name": "FENGYUN 3B",
        "group": "weather",
        "lat": -79.24842670358399,
        "lon": 94.76822802000015,
        "alt_km": 840.0872962454323,
        "timestamp": "2025-12-24T05:51:19.248664+00:00",
        "meta_object_name": "FENGYUN 3B",
        "meta_object_id": "2010-059A",
        "meta_epoch": "2025-12-23T23:59:55.158144",
        "meta_mean_motion": 14.14791552,
        "meta_eccentricity": 0.00215401,
        "meta_inclination": 98.9887,
        "meta_ra_of_asc_node": 38.055,
        "meta_arg_of_pericenter": 325.5143,
        "meta_mean_anomaly": 148.3912,
        "meta_ephemeris_type": 0,
        "meta_classification_type": "U",
        "meta_norad_cat_id": 37214,
        "meta_element_set_no": 999,
        "meta_rev_at_epoch": 78265,
        "meta_bstar": -2.3134948e-05,
        "meta_mean_motion_dot": -9e-07,
        "meta_mean_motion_ddot": 0,
        "tle_line1": "1 37214U 10059A   25357.99994396 -.00000090  00000+0 -23135-4 0  9990",
        "tle_line2": "2 37214  98.9887  38.0550 0021540 325.5143 148.3912 14.14791552782659"
      },
      "geometry": {
        "type": "Point",
        "coordinates": [
          94.76822802000015,
          -79.24842670358399
        ]
      }
    },
    {
      "type": "Feature",
      "properties": {
        "norad_id": 37849,
        "name": "SUOMI NPP",
        "group": "weather",
        "lat": -47.24274476474621,
        "lon": -54.89698893582669,
        "alt_km": 835.2396321791657,
        "timestamp": "2025-12-24T05:51:19.248675+00:00",
        "meta_object_name": "SUOMI NPP",
        "meta_object_id": "2011-061A",
        "meta_epoch": "2025-12-22T15:10:21.732672",
        "meta_mean_motion": 14.19516903,
        "meta_eccentricity": 0.00024883,
        "meta_inclination": 98.7787,
        "meta_ra_of_asc_node": 293.8852,
        "meta_arg_of_pericenter": 103.0781,
        "meta_mean_anomaly": 257.0673,
        "meta_ephemeris_type": 0,
        "meta_classification_type": "U",
        "meta_norad_cat_id": 37849,
        "meta_element_set_no": 999,
        "meta_rev_at_epoch": 73339,
        "meta_bstar": 6.3406935e-05,
        "meta_mean_motion_dot": 8.9e-07,
        "meta_mean_motion_ddot": 0,
        "tle_line1": "1 37849U 11061A   25356.63219598  .00000089  00000+0  63407-4 0  9994",
        "tle_line2": "2 37849  98.7787 293.8852 0002488 103.0781 257.0673 14.19516903733392"
      },
      "geometry": {
        "type": "Point",
        "coordinates": [
          -54.89698893582669,
          -47.24274476474621
        ]
      }
    },
    {
      "type": "Feature",
      "properties": {
        "norad_id": 38552,
        "name": "METEOSAT-10 (MSG-3)",
        "group": "weather",
        "lat": 3.708231802280116,
        "lon": -178.7260298152089,
        "alt_km": 35786.61590326769,
        "timestamp": "2025-12-24T05:51:19.248687+00:00",
        "meta_object_name": "METEOSAT-10 (MSG-3)",
        "meta_object_id": "2012-035B",
        "meta_epoch": "2025-12-23T01:08:58.915968",
        "meta_mean_motion": 1.0027689,
        "meta_eccentricity": 7.313e-05,
        "meta_inclination": 4.2513,
        "meta_ra_of_asc_node": 61.6947,
        "meta_arg_of_pericenter": 264.0711,
        "meta_mean_anomaly": 143.6614,
        "meta_ephemeris_type": 0,
        "meta_classification_type": "U",
        "meta_norad_cat_id": 38552,
        "meta_element_set_no": 999,
        "meta_rev_at_epoch": 4909,
        "meta_bstar": 0,
        "meta_mean_motion_dot": 1.6e-07,
        "meta_mean_motion_ddot": 0,
        "tle_line1": "1 38552U 12035B   25357.04790412  .00000016  00000+0  00000+0 0  9998",
        "tle_line2": "2 38552   4.2513  61.6947 0000731 264.0711 143.6614  1.00276890 49095"
      },
      "geometry": {
        "type": "Point",
        "coordinates": [
          -178.7260298152089,
          3.708231802280116
        ]
      }
    },
    {
      "type": "Feature",
      "properties": {
        "norad_id": 38771,
        "name": "METOP-B",
        "group": "weather",
        "lat": -61.461490581918795,
        "lon": -148.30384948257307,
        "alt_km": 828.9824461574335,
        "timestamp": "2025-12-24T05:51:19.248698+00:00",
        "meta_object_name": "METOP-B",
        "meta_object_id": "2012-049A",
        "meta_epoch": "2025-12-23T23:38:57.267456",
        "meta_mean_motion": 14.21412526,
        "meta_eccentricity": 0.00032514,
        "meta_inclination": 98.6783,
        "meta_ra_of_asc_node": 47.7527,
        "meta_arg_of_pericenter": 120.5917,
        "meta_mean_anomaly": 239.5581,
        "meta_ephemeris_type": 0,
        "meta_classification_type": "U",
        "meta_norad_cat_id": 38771,
        "meta_element_set_no": 999,
        "meta_rev_at_epoch": 68837,
        "meta_bstar": 7.8928453e-05,
        "meta_mean_motion_dot": 1.29e-06,
        "meta_mean_motion_ddot": 0,
        "tle_line1": "1 38771U 12049A   25357.98538504  .00000129  00000+0  78928-4 0  9995",
        "tle_line2": "2 38771  98.6783  47.7527 0003251 120.5917 239.5581 14.21412526688370"
      },
      "geometry": {
        "type": "Point",
        "coordinates": [
          -148.30384948257307,
          -61.461490581918795
        ]
      }
    },
    {
      "type": "Feature",
      "properties": {
        "norad_id": 39216,
        "name": "INSAT-3D",
        "group": "weather",
        "lat": -1.071120473592317,
        "lon": -49.610436491248684,
        "alt_km": 35782.70219540284,
        "timestamp": "2025-12-24T05:51:19.248710+00:00",
        "meta_object_name": "INSAT-3D",
        "meta_object_id": "2013-038B",
        "meta_epoch": "2025-12-23T20:35:46.548096",
        "meta_mean_motion": 1.00275086,
        "meta_eccentricity": 0.00018678,
        "meta_inclination": 1.4718,
        "meta_ra_of_asc_node": 84.8718,
        "meta_arg_of_pericenter": 154.9111,
        "meta_mean_anomaly": 291.3295,
        "meta_ephemeris_type": 0,
        "meta_classification_type": "U",
        "meta_norad_cat_id": 39216,
        "meta_element_set_no": 999,
        "meta_rev_at_epoch": 4532,
        "meta_bstar": 0,
        "meta_mean_motion_dot": -3.18e-06,
        "meta_mean_motion_ddot": 0,
        "tle_line1": "1 39216U 13038B   25357.85817764 -.00000318  00000+0  00000+0 0  9995",
        "tle_line2": "2 39216   1.4718  84.8718 0001867 154.9111 291.3295  1.00275086 45328"
      },
      "geometry": {
        "type": "Point",
        "coordinates": [
          -49.610436491248684,
          -1.071120473592317
        ]
      }
    },
    {
      "type": "Feature",
      "properties": {
        "norad_id": 39260,
        "name": "FENGYUN 3C",
        "group": "weather",
        "lat": -71.38301037657742,
        "lon": 129.08286074436236,
        "alt_km": 847.2900383364831,
        "timestamp": "2025-12-24T05:51:19.248722+00:00",
        "meta_object_name": "FENGYUN 3C",
        "meta_object_id": "2013-052A",
        "meta_epoch": "2025-12-23T21:52:42.131136",
        "meta_mean_motion": 14.15699532,
        "meta_eccentricity": 0.00149001,
        "meta_inclination": 98.4777,
        "meta_ra_of_asc_node": 335.0461,
        "meta_arg_of_pericenter": 163.7556,
        "meta_mean_anomaly": 196.41,
        "meta_ephemeris_type": 0,
        "meta_classification_type": "U",
        "meta_norad_cat_id": 39260,
        "meta_element_set_no": 999,
        "meta_rev_at_epoch": 63376,
        "meta_bstar": 7.7158383e-05,
        "meta_mean_motion_dot": 1.1e-06,
        "meta_mean_motion_ddot": 0,
        "tle_line1": "1 39260U 13052A   25357.91159874  .00000110  00000+0  77158-4 0  9990",
        "tle_line2": "2 39260  98.4777 335.0461 0014900 163.7556 196.4100 14.15699532633764"
      },
      "geometry": {
        "type": "Point",
        "coordinates": [
          129.08286074436236,
          -71.38301037657742
        ]
      }
    }
  ]
}